[{"OBJECT_NAME":"STARLINK-35727","OBJECT_ID":"2025-247S","EPOCH":"2026-03-09T13:53:38.277600","MEAN_MOTION":15.30173698,"ECCENTRICITY":0.0001461,"INCLINATION":53.1586,"RA_OF_ASC_NODE":192.173,"ARG_OF_PERICENTER":32.0349,"MEAN_ANOMALY":328.074,"EPHEMERIS_TYPE":0,"CLASSIFICATION_TYPE":"U","NORAD_CAT_ID":66281,"ELEMENT_SET_NO":999,"REV_AT_EPOCH":2101,"BSTAR":0.00053868,"MEAN_MOTION_DOT":0.00015616,"MEAN_MOTION_DDOT":0},{"OBJECT_NAME":"KUIPER-00223","OBJECT_ID":"2026-030V","EPOCH":"2026-03-09T17:18:46.022400","MEAN_MOTION":15.34146211,"ECCENTRICITY":0.00128242,"INCLINATION":51.8827,"RA_OF_ASC_NODE":219.2782,"ARG_OF_PERICENTER":59.0052,"MEAN_ANOMALY":301.2192,"EPHEMERIS_TYPE":0,"CLASSIFICATION_TYPE":"U","NORAD_CAT_ID":67783,"ELEMENT_SET_NO":999,"REV_AT_EPOCH":509,"BSTAR":0.00090645373,"MEAN_MOTION_DOT":0.00030225,"MEAN_MOTION_DDOT":0}]
